STARLINK-5947
1 55989U 23042D   26090.83335647  .00813004  00000+0  31435-1 0  9995
2 55989  42.9988 294.2577 0001478 252.2937 318.8217 15.23249728  5811
STARLINK-6084
1 56111U 23046U   26090.83335647  .00771050  00000+0  29553-1 0  9999
2 56111  43.0043  36.6951 0001230 255.4435 177.6891 15.23271447  5767
